{
    "CCSDS_OMM_VERS": "3.0",
    "COMMENT": "GENERATED VIA SPACE-TRACK.ORG API",
    "CREATION_DATE": "2025-05-23T14:36:33",
    "ORIGINATOR": "18 SPCS",
    "OBJECT_NAME": "COSMOS 2500 (GLONASS)",
    "OBJECT_ID": "2014-032A",
    "CENTER_NAME": "EARTH",
    "REF_FRAME": "TEME",
    "TIME_SYSTEM": "UTC",
    "MEAN_ELEMENT_THEORY": "SGP4",
    "EPOCH": "2025-05-23T02:08:18.923424",
    "MEAN_MOTION": "2.13105915",
    "ECCENTRICITY": "0.00060150",
    "INCLINATION": "65.4541",
    "RA_OF_ASC_NODE": "326.9440",
    "ARG_OF_PERICENTER": "183.4794",
    "MEAN_ANOMALY": "176.5358",
    "EPHEMERIS_TYPE": "0",
    "CLASSIFICATION_TYPE": "U",
    "NORAD_CAT_ID": "40001",
    "ELEMENT_SET_NO": "999",
    "REV_AT_EPOCH": "8514",
    "BSTAR": "0.00000000000000",
    "MEAN_MOTION_DOT": "-0.00000026",
    "MEAN_MOTION_DDOT": "0.0000000000000",
    "SEMIMAJOR_AXIS": "25507.712",
    "PERIOD": "675.720",
    "APOAPSIS": "19144.920",
    "PERIAPSIS": "19114.234",
    "OBJECT_TYPE": "PAYLOAD",
    "RCS_SIZE": "LARGE",
    "COUNTRY_CODE": "CIS",
    "LAUNCH_DATE": "2014-06-14",
    "SITE": "PKMTR",
    "DECAY_DATE": null,
    "FILE": "4736975",
    "GP_ID": "288174364",
    "TLE_LINE0": "0 COSMOS 2500 (GLONASS)",
    "TLE_LINE1": "1 40001U 14032A   25143.08910791 -.00000026  00000-0  00000+0 0  9993",
    "TLE_LINE2": "2 40001  65.4541 326.9440 0006015 183.4794 176.5358  2.13105915 85148"
}